COSMOS 2361             
1 25590U 98076A   24154.18238701  .00000064  00000+0  52486-4 0  9995
2 25590  82.9361  37.0729 0032039  21.2047  94.5825 13.73118809274459
COSMOS 2378             
1 26818U 01023A   24154.25409111  .00000055  00000+0  42815-4 0  9993
2 26818  82.9287  53.7232 0032230 324.2361 156.3028 13.74049749152535
COSMOS 2389             
1 27436U 02026A   24154.53871038  .00000089  00000+0  76396-4 0  9994
2 27436  82.9514   0.1132 0046438 176.0203 244.7924 13.75064243104770
COSMOS 2398             
1 27818U 03023A   24154.51536694  .00000092  00000+0  84586-4 0  9994
2 27818  82.9473 324.0393 0030449 221.4797 192.5832 13.72296020 51601
COSMOS 2407             
1 28380U 04028A   24154.39533417  .00000076  00000+0  61597-4 0  9990
2 28380  82.9605 266.3481 0039471 173.5053 250.0130 13.76211965997424
COSMOS 2414             
1 28521U 05002A   24154.37057945  .00000077  00000+0  51633-4 0  9996
2 28521  82.9505 246.9229 0038875 293.9424  65.7670 13.87775592980537
COSMOS 2429             
1 32052U 07038A   24154.19444940  .00000072  00000+0  58845-4 0  9993
2 32052  82.9823  34.9375 0038916 154.0023 206.3099 13.75054106839268
COSMOS 2454             
1 35635U 09039A   24154.32367637  .00000075  00000+0  48532-4 0  9993
2 35635  82.9574 231.9761 0018185 227.5667 199.3731 13.89804148753932
COSMOS 2463             
1 36519U 10017A   24154.33624069  .00000063  00000+0  53180-4 0  9991
2 36519  82.9612  76.9652 0037159  38.5480  79.4287 13.71560390705826
